{
    "links": {
        "self": "http://www.neowsapp.com/rest/v1/neo/3551167?api_key=iIulBulltgU6a56xZRHN4H3l9WmuAYTsLGpBGhQ2"
    },
    "id": "3551167",
    "neo_reference_id": "3551167",
    "name": "(2010 VP98)",
    "designation": "2010 VP98",
    "nasa_jpl_url": "http://ssd.jpl.nasa.gov/sbdb.cgi?sstr=3551167",
    "absolute_magnitude_h": 24.4,
    "estimated_diameter": {
        "kilometers": {
            "estimated_diameter_min": 0.0350392641,
            "estimated_diameter_max": 0.0783501764
        },
        "meters": {
            "estimated_diameter_min": 35.0392641108,
            "estimated_diameter_max": 78.3501764334
        },
        "miles": {
            "estimated_diameter_min": 0.0217723826,
            "estimated_diameter_max": 0.0486845275
        },
        "feet": {
            "estimated_diameter_min": 114.9582192654,
            "estimated_diameter_max": 257.0543928497
        }
    },
    "is_potentially_hazardous_asteroid": false,
    "close_approach_data": [
        {
            "close_approach_date": "2010-11-18",
            "close_approach_date_full": "2010-Nov-18 23:17",
            "epoch_date_close_approach": 1290122220000,
            "relative_velocity": {
                "kilometers_per_second": "13.1925139948",
                "kilometers_per_hour": "47493.050381118",
                "miles_per_hour": "29510.3345548675"
            },
            "miss_distance": {
                "astronomical": "0.1216573502",
                "lunar": "47.3247092278",
                "kilometers": "18199680.459764074",
                "miles": "11308757.0436652612"
            },
            "orbiting_body": "Earth"
        },
        {
            "close_approach_date": "2011-04-21",
            "close_approach_date_full": "2011-Apr-21 05:08",
            "epoch_date_close_approach": 1303362480000,
            "relative_velocity": {
                "kilometers_per_second": "12.0556998068",
                "kilometers_per_hour": "43400.5193044843",
                "miles_per_hour": "26967.3948978336"
            },
            "miss_distance": {
                "astronomical": "0.2749966652",
                "lunar": "106.9737027628",
                "kilometers": "41138915.371023124",
                "miles": "25562536.6609781512"
            },
            "orbiting_body": "Earth"
        }
    ],
    "orbital_data": {
        "orbit_id": "8",
        "orbit_determination_date": "2019-07-16 06:14:07",
        "first_observation_date": "2010-11-08",
        "last_observation_date": "2010-11-11",
        "data_arc_in_days": 3,
        "observations_used": 17,
        "orbit_uncertainty": "9",
        "minimum_orbit_intersection": ".117758",
        "jupiter_tisserand_invariant": "4.767",
        "epoch_osculation": "2455510.5",
        "eccentricity": ".2962559092323416",
        "semi_major_axis": "1.344264459267058",
        "inclination": "22.68130379690996",
        "ascending_node_longitude": "47.62824890845733",
        "orbital_period": "569.2794433078936",
        "perihelion_distance": ".9460181696381738",
        "perihelion_argument": "73.64436574949256",
        "aphelion_distance": "1.742510748895942",
        "perihelion_time": "2455579.248125675716",
        "mean_anomaly": "316.5251731215734",
        "mean_motion": ".6323783586987783",
        "equinox": "J2000",
        "orbit_class": {
            "orbit_class_type": "APO",
            "orbit_class_description": "Near-Earth asteroid orbits which cross the Earth’s orbit similar to that of 1862 Apollo",
            "orbit_class_range": "a (semi-major axis) > 1.0 AU; q (perihelion) < 1.017 AU"
        }
    },
    "is_sentry_object": false
}